IRIDIUM 116             
1 43072U 17083C   25214.58216629 -.00000004  00000+0 -83728-5 0  9996
2 43072  86.3939  95.2165 0001987  92.5285 267.6138 14.34217491398504
IRIDIUM 130             
1 43073U 17083D   25214.62021966  .00000112  00000+0  32914-4 0  9998
2 43073  86.3949  95.4454 0001870  93.6859 266.4551 14.34218667398455
IRIDIUM 151             
1 43074U 17083E   25215.15299981  .00000099  00000+0  28292-4 0  9990
2 43074  86.3944  95.0287 0002224  92.0780 268.0670 14.34217409398555
IRIDIUM 134             
1 43075U 17083F   25214.21429521  .00000007  00000+0 -44419-5 0  9992
2 43075  86.3945  95.4249 0001881  90.5945 269.5466 14.34217665398387
IRIDIUM 137             
1 43076U 17083G   25215.20374126  .00000013  00000+0 -23500-5 0  9998
2 43076  86.3944  95.0972 0002443  97.7272 262.4202 14.34217572398593
IRIDIUM 141             
1 43077U 17083H   25215.19739676  .00000118  00000+0  35068-4 0  9998
2 43077  86.3941  94.9488 0002182  81.5014 278.6429 14.34218284398597
IRIDIUM 153             
1 43078U 17083J   25214.59142742  .00000085  00000+0  23296-4 0  9997
2 43078  86.3924  63.6563 0002105  76.1033 284.0397 14.34217487399615
IRIDIUM 131             
1 43079U 17083K   25214.20795334  .00000011  00000+0 -30301-5 0  9993
2 43079  86.3947  95.5274 0002166  83.2696 276.8746 14.34217592398382
